{"type": "FeatureCollection", "features": [ {"type": "Feature", "properties": {"norad_id": 31820, "name": "FENGYUN 1C DEB", "group": "fengyun-1c-debris", "lat": 41.35633211563026, "lon": -16.75204170653575, "alt_km": 637.6579618611231, "timestamp": "2025-12-10T14:53:37.375673+00:00", "meta": {"OBJECT_NAME": "FENGYUN 1C DEB", "OBJECT_ID": "1999-025CHJ", "EPOCH": "2025-12-05T05:31:51.203136", "MEAN_MOTION": 14.91947844, "ECCENTRICITY": 0.01510454, "INCLINATION": 98.9594, "RA_OF_ASC_NODE": 149.1402, "ARG_OF_PERICENTER": 36.1593, "MEAN_ANOMALY": 324.9721, "EPHEMERIS_TYPE": 0, "CLASSIFICATION_TYPE": "U", "NORAD_CAT_ID": 31820, "ELEMENT_SET_NO": 999, "REV_AT_EPOCH": 98144, "BSTAR": 0.0016610568, "MEAN_MOTION_DOT": 0.00020946, "MEAN_MOTION_DDOT": 0}, "tle": {"line1": "1 31820U 99025CHJ 25339.23045374  .00020946  00000+0  16611-2 0  9996", "line2": "2 31820  98.9594 149.1402 0151045  36.1593 324.9721 14.91947844981449"}}, "geometry": {"type": "Point", "coordinates": [-16.75204170653575, 41.35633211563026]}}, {"type": "Feature", "properties": {"norad_id": 31821, "name": "FENGYUN 1C DEB", "group": "fengyun-1c-debris", "lat": 10.531378808091953, "lon": 51.19556170020728, "alt_km": 887.076621383987, "timestamp": "2025-12-10T14:53:37.375683+00:00", "meta": {"OBJECT_NAME": "FENGYUN 1C DEB", "OBJECT_ID": "1999-025CHK", "EPOCH": "2025-12-08T12:09:14.009760", "MEAN_MOTION": 14.41688123, "ECCENTRICITY": 0.0220877, "INCLINATION": 98.1556, "RA_OF_ASC_NODE": 227.6467, "ARG_OF_PERICENTER": 27.3046, "MEAN_ANOMALY": 333.9554, "EPHEMERIS_TYPE": 0, "CLASSIFICATION_TYPE": "U", "NORAD_CAT_ID": 31821, "ELEMENT_SET_NO": 999, "REV_AT_EPOCH": 93600, "BSTAR": 0.0057642555, "MEAN_MOTION_DOT": 0.000252, "MEAN_MOTION_DDOT": 0}, "tle": {"line1": "1 31821U 99025CHK 25342.50641215  .00025200  00000+0  57643-2 0  9995", "line2": "2 31821  98.1556 227.6467 0220877  27.3046 333.9554 14.41688123936001"}}, "geometry": {"type": "Point", "coordinates": [51.19556170020728, 10.531378808091953]}}, {"type": "Feature", "properties": {"norad_id": 31823, "name": "FENGYUN 1C DEB", "group": "fengyun-1c-debris", "lat": 26.593482551278896, "lon": -104.67952866745678, "alt_km": 666.2035255041965, "timestamp": "2025-12-10T14:53:37.375693+00:00", "meta": {"OBJECT_NAME": "FENGYUN 1C DEB", "OBJECT_ID": "1999-025CHM", "EPOCH": "2025-12-09T16:53:42.258912", "MEAN_MOTION": 14.65619684, "ECCENTRICITY": 0.00371279, "INCLINATION": 99.511, "RA_OF_ASC_NODE": 69.4464, "ARG_OF_PERICENTER": 228.5668, "MEAN_ANOMALY": 131.2339, "EPHEMERIS_TYPE": 0, "CLASSIFICATION_TYPE": "U", "NORAD_CAT_ID": 31823, "ELEMENT_SET_NO": 999, "REV_AT_EPOCH": 96673, "BSTAR": 0.002103888, "MEAN_MOTION_DOT": 0.00011501, "MEAN_MOTION_DDOT": 0}, "tle": {"line1": "1 31823U 99025CHM 25343.70396133  .00011501  00000+0  21039-2 0  9995", "line2": "2 31823  99.5110  69.4464 0037127 228.5668 131.2339 14.65619684966737"}}, "geometry": {"type": "Point", "coordinates": [-104.67952866745678, 26.593482551278896]}}, {"type": "Feature", "properties": {"norad_id": 31825, "name": "FENGYUN 1C DEB", "group": "fengyun-1c-debris", "lat": -18.59648838767945, "lon": 161.36067175764188, "alt_km": 922.9117796574565, "timestamp": "2025-12-10T14:53:37.375702+00:00", "meta": {"OBJECT_NAME": "FENGYUN 1C DEB", "OBJECT_ID": "1999-025CHP", "EPOCH": "2025-12-09T05:51:39.972096", "MEAN_MOTION": 14.21627347, "ECCENTRICITY": 0.016579, "INCLINATION": 98.5906, "RA_OF_ASC_NODE": 342.9358, "ARG_OF_PERICENTER": 348.4988, "MEAN_ANOMALY": 11.2421, "EPHEMERIS_TYPE": 0, "CLASSIFICATION_TYPE": "U", "NORAD_CAT_ID": 31825, "ELEMENT_SET_NO": 999, "REV_AT_EPOCH": 95572, "BSTAR": 0.0011959, "MEAN_MOTION_DOT": 2.973e-05, "MEAN_MOTION_DDOT": 0}, "tle": {"line1": "1 31825U 99025CHP 25343.24421264  .00002973  00000+0  11959-2 0  9993", "line2": "2 31825  98.5906 342.9358 0165790 348.4988  11.2421 14.21627347955720"}}, "geometry": {"type": "Point", "coordinates": [161.36067175764188, -18.59648838767945]}}, {"type": "Feature", "properties": {"norad_id": 31826, "name": "FENGYUN 1C DEB", "group": "fengyun-1c-debris", "lat": 77.43017738055448, "lon": -67.09998297079864, "alt_km": 856.7955976316543, "timestamp": "2025-12-10T14:53:37.375711+00:00", "meta": {"OBJECT_NAME": "FENGYUN 1C DEB", "OBJECT_ID": "1999-025CHQ", "EPOCH": "2025-12-07T22:21:17.489088", "MEAN_MOTION": 14.19262669, "ECCENTRICITY": 0.01237706, "INCLINATION": 98.6257, "RA_OF_ASC_NODE": 333.1845, "ARG_OF_PERICENTER": 203.2304, "MEAN_ANOMALY": 186.995, "EPHEMERIS_TYPE": 0, "CLASSIFICATION_TYPE": "U", "NORAD_CAT_ID": 31826, "ELEMENT_SET_NO": 999, "REV_AT_EPOCH": 95746, "BSTAR": 0.00053844954, "MEAN_MOTION_DOT": 1.176e-05, "MEAN_MOTION_DDOT": 0}, "tle": {"line1": "1 31826U 99025CHQ 25341.93145242  .00001176  00000+0  53845-3 0  9992", "line2": "2 31826  98.6257 333.1845 0123770 203.2304 186.9950 14.19262669957465"}}, "geometry": {"type": "Point", "coordinates": [-67.09998297079864, 77.43017738055448]}}, {"type": "Feature", "properties": {"norad_id": 31829, "name": "FENGYUN 1C DEB", "group": "fengyun-1c-debris", "lat": 35.845384718678446, "lon": -18.989956318939647, "alt_km": 819.8018305039259, "timestamp": "2025-12-10T14:53:37.375720+00:00", "meta": {"OBJECT_NAME": "FENGYUN 1C DEB", "OBJECT_ID": "1999-025CHT", "EPOCH": "2025-12-09T17:33:21.638880", "MEAN_MOTION": 13.88677973, "ECCENTRICITY": 0.01690737, "INCLINATION": 98.8354, "RA_OF_ASC_NODE": 153.7155, "ARG_OF_PERICENTER": 172.6411, "MEAN_ANOMALY": 209.5253, "EPHEMERIS_TYPE": 0, "CLASSIFICATION_TYPE": "U", "NORAD_CAT_ID": 31829, "ELEMENT_SET_NO": 999, "REV_AT_EPOCH": 94106, "BSTAR": 0.00075567816, "MEAN_MOTION_DOT": 9.8e-06, "MEAN_MOTION_DDOT": 0}, "tle": {"line1": "1 31829U 99025CHT 25343.73150045  .00000980  00000+0  75568-3 0  9990", "line2": "2 31829  98.8354 153.7155 0169073 172.6411 209.5253 13.88677973941062"}}, "geometry": {"type": "Point", "coordinates": [-18.989956318939647, 35.845384718678446]}}, {"type": "Feature", "properties": {"norad_id": 31830, "name": "FENGYUN 1C DEB", "group": "fengyun-1c-debris", "lat": -11.220116739927885, "lon": -91.47415408587436, "alt_km": 1038.572665005432, "timestamp": "2025-12-10T14:53:37.375729+00:00", "meta": {"OBJECT_NAME": "FENGYUN 1C DEB", "OBJECT_ID": "1999-025CHU", "EPOCH": "2025-12-08T06:32:34.361088", "MEAN_MOTION": 13.83392164, "ECCENTRICITY": 0.01820132, "INCLINATION": 99.1645, "RA_OF_ASC_NODE": 88.0728, "ARG_OF_PERICENTER": 326.568, "MEAN_ANOMALY": 59.2383, "EPHEMERIS_TYPE": 0, "CLASSIFICATION_TYPE": "U", "NORAD_CAT_ID": 31830, "ELEMENT_SET_NO": 999, "REV_AT_EPOCH": 92678, "BSTAR": 0.0025930533, "MEAN_MOTION_DOT": 3.197e-05, "MEAN_MOTION_DDOT": 0}, "tle": {"line1": "1 31830U 99025CHU 25342.27261992  .00003197  00000+0  25931-2 0  9995", "line2": "2 31830  99.1645  88.0728 0182013 326.5680  59.2383 13.83392164926781"}}, "geometry": {"type": "Point", "coordinates": [-91.47415408587436, -11.220116739927885]}}, {"type": "Feature", "properties": {"norad_id": 31834, "name": "FENGYUN 1C DEB", "group": "fengyun-1c-debris", "lat": -11.53083456078303, "lon": 23.268981406275874, "alt_km": 922.0177861671273, "timestamp": "2025-12-10T14:53:37.375739+00:00", "meta": {"OBJECT_NAME": "FENGYUN 1C DEB", "OBJECT_ID": "1999-025CHY", "EPOCH": "2025-12-09T20:53:13.363584", "MEAN_MOTION": 14.03149473, "ECCENTRICITY": 0.01627896, "INCLINATION": 98.3687, "RA_OF_ASC_NODE": 204.2994, "ARG_OF_PERICENTER": 85.6379, "MEAN_ANOMALY": 276.3369, "EPHEMERIS_TYPE": 0, "CLASSIFICATION_TYPE": "U", "NORAD_CAT_ID": 31834, "ELEMENT_SET_NO": 999, "REV_AT_EPOCH": 63670, "BSTAR": 0.0003269866, "MEAN_MOTION_DOT": 5.35e-06, "MEAN_MOTION_DDOT": 0}, "tle": {"line1": "1 31834U 99025CHY 25343.87029356  .00000535  00000+0  32699-3 0  9995", "line2": "2 31834  98.3687 204.2994 0162789  85.6379 276.3369 14.03149473636707"}}, "geometry": {"type": "Point", "coordinates": [23.268981406275874, -11.53083456078303]}}, {"type": "Feature", "properties": {"norad_id": 31837, "name": "FENGYUN 1C DEB", "group": "fengyun-1c-debris", "lat": -33.2729611071332, "lon": -125.2277494095826, "alt_km": 693.6747402775036, "timestamp": "2025-12-10T14:53:37.375748+00:00", "meta": {"OBJECT_NAME": "FENGYUN 1C DEB", "OBJECT_ID": "1999-025CJB", "EPOCH": "2025-12-06T11:05:58.197696", "MEAN_MOTION": 14.82076546, "ECCENTRICITY": 0.0094318, "INCLINATION": 98.102, "RA_OF_ASC_NODE": 55.9272, "ARG_OF_PERICENTER": 38.0956, "MEAN_ANOMALY": 322.6875, "EPHEMERIS_TYPE": 0, "CLASSIFICATION_TYPE": "U", "NORAD_CAT_ID": 31837, "ELEMENT_SET_NO": 999, "REV_AT_EPOCH": 98266, "BSTAR": 0.001865506, "MEAN_MOTION_DOT": 0.00015992, "MEAN_MOTION_DDOT": 0}, "tle": {"line1": "1 31837U 99025CJB 25340.46247914  .00015992  00000+0  18655-2 0  9990", "line2": "2 31837  98.1020  55.9272 0094318  38.0956 322.6875 14.82076546982667"}}, "geometry": {"type": "Point", "coordinates": [-125.2277494095826, -33.2729611071332]}}, {"type": "Feature", "properties": {"norad_id": 31838, "name": "FENGYUN 1C DEB", "group": "fengyun-1c-debris", "lat": -23.473942414326366, "lon": -148.48019201796683, "alt_km": 832.8631241271087, "timestamp": "2025-12-10T14:53:37.375758+00:00", "meta": {"OBJECT_NAME": "FENGYUN 1C DEB", "OBJECT_ID": "1999-025CJC", "EPOCH": "2025-12-06T08:49:21.453024", "MEAN_MOTION": 14.21105731, "ECCENTRICITY": 0.00388378, "INCLINATION": 98.7183, "RA_OF_ASC_NODE": 31.1437, "ARG_OF_PERICENTER": 113.4762, "MEAN_ANOMALY": 303.75, "EPHEMERIS_TYPE": 0, "CLASSIFICATION_TYPE": "U", "NORAD_CAT_ID": 31838, "ELEMENT_SET_NO": 999, "REV_AT_EPOCH": 64486, "BSTAR": 0.0013391766, "MEAN_MOTION_DOT": 2.888e-05, "MEAN_MOTION_DDOT": 0}, "tle": {"line1": "1 31838U 99025CJC 25340.36760941  .00002888  00000+0  13392-2 0  9993", "line2": "2 31838  98.7183  31.1437 0038837 113.4762 303.7500 14.21105731644864"}}, "geometry": {"type": "Point", "coordinates": [-148.48019201796683, -23.473942414326366]}}]}